KUIPER-00035            
1 63748U 25088AA  25318.83900367 -.00004397  00000+0 -54741-3 0  9994
2 63748  51.9017 261.9793 0006133  47.4929 312.6551 14.79960990 30503
KUIPER-00037            
1 63749U 25088AB  25318.56951475  .00005006  00000+0  68233-3 0  9998
2 63749  51.8990 262.1109 0008369   5.3160 354.7890 14.80102235 31269
KUIPER-00038            
1 63750U 25088AC  25318.78933397 -.00008829  00000+0 -11306-2 0  9993
2 63750  51.9026 246.1651 0007720  56.8113 303.3589 14.79900604 30500
KUIPER-00039            
1 64500U 25134A   25318.55893030  .00005088  00000+0  69340-3 0  9997
2 64500  51.9023  22.1809 0011379 271.9201  88.0458 14.80062169 23029
KUIPER-00040            
1 64501U 25134B   25318.61434809  .00000040  00000+0  34669-4 0  9990
2 64501  51.9016  33.0995 0016920 246.8284 113.0896 14.79969970 22879
KUIPER-00041            
1 64502U 25134C   25318.61295389 -.00023067  00000+0 -29975-2 0  9997
2 64502  51.9019  34.4599 0014194 245.5350 114.4132 14.79986225 22857
KUIPER-00042            
1 64503U 25134D   25318.48172631  .00006015  00000+0  81442-3 0  9997
2 64503  51.9021  31.0411 0012148 252.7048 107.2586 14.80051414 22890
KUIPER-00043            
1 64504U 25134E   25318.55740834  .00004644  00000+0  63603-3 0  9997
2 64504  51.9030  23.1465 0002937 248.3293 111.7357 14.80048220 23012
