<?xml version="1.0" encoding="UTF-8"?>
<ndm xmlns:xsi="http://www.w3.org/2001/XMLSchema-instance" xsi:noNamespaceSchemaLocation="https://sanaregistry.org/r/ndmxml_unqualified/ndmxml-2.0.0-master-2.0.xsd">
<omm id="CCSDS_OMM_VERS" version="2.0">
<header><CREATION_DATE/><ORIGINATOR/></header><body><segment><metadata><OBJECT_NAME>KUIPER-00035</OBJECT_NAME><OBJECT_ID>2025-088AA</OBJECT_ID><CENTER_NAME>EARTH</CENTER_NAME><REF_FRAME>TEME</REF_FRAME><TIME_SYSTEM>UTC</TIME_SYSTEM><MEAN_ELEMENT_THEORY>SGP4</MEAN_ELEMENT_THEORY></metadata><data><meanElements><EPOCH>2025-11-14T20:08:09.917088</EPOCH><MEAN_MOTION>14.79960990</MEAN_MOTION><ECCENTRICITY>.0006133</ECCENTRICITY><INCLINATION>51.9017</INCLINATION><RA_OF_ASC_NODE>261.9793</RA_OF_ASC_NODE><ARG_OF_PERICENTER>47.4929</ARG_OF_PERICENTER><MEAN_ANOMALY>312.6551</MEAN_ANOMALY></meanElements><tleParameters><EPHEMERIS_TYPE>0</EPHEMERIS_TYPE><CLASSIFICATION_TYPE>U</CLASSIFICATION_TYPE><NORAD_CAT_ID>63748</NORAD_CAT_ID><ELEMENT_SET_NO>999</ELEMENT_SET_NO><REV_AT_EPOCH>3050</REV_AT_EPOCH><BSTAR>-.54741E-3</BSTAR><MEAN_MOTION_DOT>-.4397E-4</MEAN_MOTION_DOT><MEAN_MOTION_DDOT>0</MEAN_MOTION_DDOT></tleParameters></data></segment></body></omm>
<omm id="CCSDS_OMM_VERS" version="2.0">
<header><CREATION_DATE/><ORIGINATOR/></header><body><segment><metadata><OBJECT_NAME>KUIPER-00037</OBJECT_NAME><OBJECT_ID>2025-088AB</OBJECT_ID><CENTER_NAME>EARTH</CENTER_NAME><REF_FRAME>TEME</REF_FRAME><TIME_SYSTEM>UTC</TIME_SYSTEM><MEAN_ELEMENT_THEORY>SGP4</MEAN_ELEMENT_THEORY></metadata><data><meanElements><EPOCH>2025-11-14T13:40:06.074400</EPOCH><MEAN_MOTION>14.80102235</MEAN_MOTION><ECCENTRICITY>.0008369</ECCENTRICITY><INCLINATION>51.8990</INCLINATION><RA_OF_ASC_NODE>262.1109</RA_OF_ASC_NODE><ARG_OF_PERICENTER>5.3160</ARG_OF_PERICENTER><MEAN_ANOMALY>354.7890</MEAN_ANOMALY></meanElements><tleParameters><EPHEMERIS_TYPE>0</EPHEMERIS_TYPE><CLASSIFICATION_TYPE>U</CLASSIFICATION_TYPE><NORAD_CAT_ID>63749</NORAD_CAT_ID><ELEMENT_SET_NO>999</ELEMENT_SET_NO><REV_AT_EPOCH>3126</REV_AT_EPOCH><BSTAR>.68233E-3</BSTAR><MEAN_MOTION_DOT>.5006E-4</MEAN_MOTION_DOT><MEAN_MOTION_DDOT>0</MEAN_MOTION_DDOT></tleParameters></data></segment></body></omm>
<omm id="CCSDS_OMM_VERS" version="2.0">
<header><CREATION_DATE/><ORIGINATOR/></header><body><segment><metadata><OBJECT_NAME>KUIPER-00038</OBJECT_NAME><OBJECT_ID>2025-088AC</OBJECT_ID><CENTER_NAME>EARTH</CENTER_NAME><REF_FRAME>TEME</REF_FRAME><TIME_SYSTEM>UTC</TIME_SYSTEM><MEAN_ELEMENT_THEORY>SGP4</MEAN_ELEMENT_THEORY></metadata><data><meanElements><EPOCH>2025-11-14T18:56:38.455008</EPOCH><MEAN_MOTION>14.79900604</MEAN_MOTION><ECCENTRICITY>.000772</ECCENTRICITY><INCLINATION>51.9026</INCLINATION><RA_OF_ASC_NODE>246.1651</RA_OF_ASC_NODE><ARG_OF_PERICENTER>56.8113</ARG_OF_PERICENTER><MEAN_ANOMALY>303.3589</MEAN_ANOMALY></meanElements><tleParameters><EPHEMERIS_TYPE>0</EPHEMERIS_TYPE><CLASSIFICATION_TYPE>U</CLASSIFICATION_TYPE><NORAD_CAT_ID>63750</NORAD_CAT_ID><ELEMENT_SET_NO>999</ELEMENT_SET_NO><REV_AT_EPOCH>3050</REV_AT_EPOCH><BSTAR>-.11306E-2</BSTAR><MEAN_MOTION_DOT>-.8829E-4</MEAN_MOTION_DOT><MEAN_MOTION_DDOT>0</MEAN_MOTION_DDOT></tleParameters></data></segment></body></omm>
<omm id="CCSDS_OMM_VERS" version="2.0">
<header><CREATION_DATE/><ORIGINATOR/></header><body><segment><metadata><OBJECT_NAME>KUIPER-00039</OBJECT_NAME><OBJECT_ID>2025-134A</OBJECT_ID><CENTER_NAME>EARTH</CENTER_NAME><REF_FRAME>TEME</REF_FRAME><TIME_SYSTEM>UTC</TIME_SYSTEM><MEAN_ELEMENT_THEORY>SGP4</MEAN_ELEMENT_THEORY></metadata><data><meanElements><EPOCH>2025-11-14T13:24:51.577920</EPOCH><MEAN_MOTION>14.80062169</MEAN_MOTION><ECCENTRICITY>.0011379</ECCENTRICITY><INCLINATION>51.9023</INCLINATION><RA_OF_ASC_NODE>22.1809</RA_OF_ASC_NODE><ARG_OF_PERICENTER>271.9201</ARG_OF_PERICENTER><MEAN_ANOMALY>88.0458</MEAN_ANOMALY></meanElements><tleParameters><EPHEMERIS_TYPE>0</EPHEMERIS_TYPE><CLASSIFICATION_TYPE>U</CLASSIFICATION_TYPE><NORAD_CAT_ID>64500</NORAD_CAT_ID><ELEMENT_SET_NO>999</ELEMENT_SET_NO><REV_AT_EPOCH>2302</REV_AT_EPOCH><BSTAR>.6934E-3</BSTAR><MEAN_MOTION_DOT>.5088E-4</MEAN_MOTION_DOT><MEAN_MOTION_DDOT>0</MEAN_MOTION_DDOT></tleParameters></data></segment></body></omm>
<omm id="CCSDS_OMM_VERS" version="2.0">
<header><CREATION_DATE/><ORIGINATOR/></header><body><segment><metadata><OBJECT_NAME>KUIPER-00040</OBJECT_NAME><OBJECT_ID>2025-134B</OBJECT_ID><CENTER_NAME>EARTH</CENTER_NAME><REF_FRAME>TEME</REF_FRAME><TIME_SYSTEM>UTC</TIME_SYSTEM><MEAN_ELEMENT_THEORY>SGP4</MEAN_ELEMENT_THEORY></metadata><data><meanElements><EPOCH>2025-11-14T14:44:39.674976</EPOCH><MEAN_MOTION>14.79969970</MEAN_MOTION><ECCENTRICITY>.001692</ECCENTRICITY><INCLINATION>51.9016</INCLINATION><RA_OF_ASC_NODE>33.0995</RA_OF_ASC_NODE><ARG_OF_PERICENTER>246.8284</ARG_OF_PERICENTER><MEAN_ANOMALY>113.0896</MEAN_ANOMALY></meanElements><tleParameters><EPHEMERIS_TYPE>0</EPHEMERIS_TYPE><CLASSIFICATION_TYPE>U</CLASSIFICATION_TYPE><NORAD_CAT_ID>64501</NORAD_CAT_ID><ELEMENT_SET_NO>999</ELEMENT_SET_NO><REV_AT_EPOCH>2287</REV_AT_EPOCH><BSTAR>.34669E-4</BSTAR><MEAN_MOTION_DOT>.4E-6</MEAN_MOTION_DOT><MEAN_MOTION_DDOT>0</MEAN_MOTION_DDOT></tleParameters></data></segment></body></omm>
<omm id="CCSDS_OMM_VERS" version="2.0">
<header><CREATION_DATE/><ORIGINATOR/></header><body><segment><metadata><OBJECT_NAME>KUIPER-00041</OBJECT_NAME><OBJECT_ID>2025-134C</OBJECT_ID><CENTER_NAME>EARTH</CENTER_NAME><REF_FRAME>TEME</REF_FRAME><TIME_SYSTEM>UTC</TIME_SYSTEM><MEAN_ELEMENT_THEORY>SGP4</MEAN_ELEMENT_THEORY></metadata><data><meanElements><EPOCH>2025-11-14T14:42:39.216096</EPOCH><MEAN_MOTION>14.79986225</MEAN_MOTION><ECCENTRICITY>.0014194</ECCENTRICITY><INCLINATION>51.9019</INCLINATION><RA_OF_ASC_NODE>34.4599</RA_OF_ASC_NODE><ARG_OF_PERICENTER>245.5350</ARG_OF_PERICENTER><MEAN_ANOMALY>114.4132</MEAN_ANOMALY></meanElements><tleParameters><EPHEMERIS_TYPE>0</EPHEMERIS_TYPE><CLASSIFICATION_TYPE>U</CLASSIFICATION_TYPE><NORAD_CAT_ID>64502</NORAD_CAT_ID><ELEMENT_SET_NO>999</ELEMENT_SET_NO><REV_AT_EPOCH>2285</REV_AT_EPOCH><BSTAR>-.29975E-2</BSTAR><MEAN_MOTION_DOT>-.23067E-3</MEAN_MOTION_DOT><MEAN_MOTION_DDOT>0</MEAN_MOTION_DDOT></tleParameters></data></segment></body></omm>
<omm id="CCSDS_OMM_VERS" version="2.0">
<header><CREATION_DATE/><ORIGINATOR/></header><body><segment><metadata><OBJECT_NAME>KUIPER-00042</OBJECT_NAME><OBJECT_ID>2025-134D</OBJECT_ID><CENTER_NAME>EARTH</CENTER_NAME><REF_FRAME>TEME</REF_FRAME><TIME_SYSTEM>UTC</TIME_SYSTEM><MEAN_ELEMENT_THEORY>SGP4</MEAN_ELEMENT_THEORY></metadata><data><meanElements><EPOCH>2025-11-14T11:33:41.153184</EPOCH><MEAN_MOTION>14.80051414</MEAN_MOTION><ECCENTRICITY>.0012148</ECCENTRICITY><INCLINATION>51.9021</INCLINATION><RA_OF_ASC_NODE>31.0411</RA_OF_ASC_NODE><ARG_OF_PERICENTER>252.7048</ARG_OF_PERICENTER><MEAN_ANOMALY>107.2586</MEAN_ANOMALY></meanElements><tleParameters><EPHEMERIS_TYPE>0</EPHEMERIS_TYPE><CLASSIFICATION_TYPE>U</CLASSIFICATION_TYPE><NORAD_CAT_ID>64503</NORAD_CAT_ID><ELEMENT_SET_NO>999</ELEMENT_SET_NO><REV_AT_EPOCH>2289</REV_AT_EPOCH><BSTAR>.81442E-3</BSTAR><MEAN_MOTION_DOT>.6015E-4</MEAN_MOTION_DOT><MEAN_MOTION_DDOT>0</MEAN_MOTION_DDOT></tleParameters></data></segment></body></omm>
<omm id="CCSDS_OMM_VERS" version="2.0">
<header><CREATION_DATE/><ORIGINATOR/></header><body><segment><metadata><OBJECT_NAME>KUIPER-00043</OBJECT_NAME><OBJECT_ID>2025-134E</OBJECT_ID><CENTER_NAME>EARTH</CENTER_NAME><REF_FRAME>TEME</REF_FRAME><TIME_SYSTEM>UTC</TIME_SYSTEM><MEAN_ELEMENT_THEORY>SGP4</MEAN_ELEMENT_THEORY></metadata><data><meanElements><EPOCH>2025-11-14T13:22:40.080576</EPOCH><MEAN_MOTION>14.80048220</MEAN_MOTION><ECCENTRICITY>.0002937</ECCENTRICITY><INCLINATION>51.9030</INCLINATION><RA_OF_ASC_NODE>23.1465</RA_OF_ASC_NODE><ARG_OF_PERICENTER>248.3293</ARG_OF_PERICENTER><MEAN_ANOMALY>111.7357</MEAN_ANOMALY></meanElements><tleParameters><EPHEMERIS_TYPE>0</EPHEMERIS_TYPE><CLASSIFICATION_TYPE>U</CLASSIFICATION_TYPE><NORAD_CAT_ID>64504</NORAD_CAT_ID><ELEMENT_SET_NO>999</ELEMENT_SET_NO><REV_AT_EPOCH>2301</REV_AT_EPOCH><BSTAR>.63603E-3</BSTAR><MEAN_MOTION_DOT>.4644E-4</MEAN_MOTION_DOT><MEAN_MOTION_DDOT>0</MEAN_MOTION_DDOT></tleParameters></data></segment></body></omm>

</ndm>
